{
  "type": "FeatureCollection",
  "name": "areas_comunes",
  "crs": {
    "type": "name",
    "properties": {
      "name": "urn:ogc:def:crs:OGC:1.3:CRS84"
    }
  },
  "features": [
    {
      "type": "Feature",
      "properties": {
        "fid": 1,
        "name": "Pórtico de ingreso",
        "marker": "/images/sidebar/areas/markers/areas.png",
        "image": "/images/sidebar/areas/images/portico.png"
      },
      "geometry": {
        "type": "Point",
        "coordinates": [
          -71.892211812928124,
          -17.116546242941524
        ]
      }
    },
    {
      "type": "Feature",
      "properties": {
        "fid": 2,
        "name": "Parque",
        "marker": "/images/sidebar/areas/markers/areas.png",
        "image": "/images/sidebar/areas/images/parque.png"
      },
      "geometry": {
        "type": "Point",
        "coordinates": [
          -71.89186124486136,
          -17.116076195758176
        ]
      }
    },
    {
      "type": "Feature",
      "properties": {
        "fid": 3,
        "name": "Club House",
        "marker": "/images/sidebar/areas/markers/areas.png",
        "image": "/images/sidebar/areas/images/club.png"
      },
      "geometry": {
        "type": "Point",
        "coordinates": [
          -71.891959611006683,
          -17.115997029799924
        ]
      }
    }
  ]
}