{
    "type": "FeatureCollection",
    "name": "entorno",
    "crs": {
        "type": "name",
        "properties": {
            "name": "urn:ogc:def:crs:OGC:1.3:CRS84"
        }
    },
    "features": [
        {
            "type": "Feature",
            "properties": {
                "fid": 2,
                "tipo": "Restaurantes",
                "nombre": "Sal y pimienta",
                "icono": "images/sidebar/entorno/marcadores_entorno/sal_y_pimienta.png",
                "imagen": "images/sidebar/entorno/images/sal_y_pimienta.png"
            },
            "geometry": {
                "type": "Point",
                "coordinates": [
                    -71.89817275236621,
                    -17.109306004103306
                ]
            }
        },
        {
            "type": "Feature",
            "properties": {
                "fid": 3,
                "tipo": "Hoteles",
                "nombre": "Hotel Sacsay",
                "icono": "images/sidebar/entorno/marcadores_entorno/hotel_sacsay.png",
                "imagen": "images/sidebar/entorno/images/hotel_sacsay.png"
            },
            "geometry": {
                "type": "Point",
                "coordinates": [
                    -71.90266041377411,
                    -17.106966354419214
                ]
            }
        },
        {
            "type": "Feature",
            "properties": {
                "fid": 5,
                "tipo": "Seguridad",
                "nombre": "Comisaría Mejía",
                "icono": "images/sidebar/entorno/marcadores_entorno/comisaria.png",
                "imagen": "images/sidebar/entorno/images/comisaria.png"
            },
            "geometry": {
                "type": "Point",
                "coordinates": [
                    -71.88298667801297,
                    -17.11528066786892
                ]
            }
        },
        {
            "type": "Feature",
            "properties": {
                "fid": 6,
                "tipo": "Turismo",
                "nombre": "Lagunas Mejía",
                "icono": "images/sidebar/entorno/marcadores_entorno/lagunas.png",
                "imagen": "images/sidebar/entorno/images/lagunas.png"
            },
            "geometry": {
                "type": "Point",
                "coordinates": [
                    -71.88951477770567,
                    -17.121041952013638
                ]
            }
        },
        {
            "type": "Feature",
            "properties": {
                "fid": 8,
                "tipo": "Playas",
                "nombre": "Playa Margarita",
                "icono": "images/sidebar/entorno/marcadores_entorno/playa_margarita.png",
                "imagen": "images/sidebar/entorno/images/playa_margarita.png"
            },
            "geometry": {
                "type": "Point",
                "coordinates": [
                    -71.89921322246444,
                    -17.115803071454962
                ]
            }
        }
    ]
}