{
    "type": "FeatureCollection",
    "name": "areas",
    "crs": {
        "type": "name",
        "properties": {
            "name": "urn:ogc:def:crs:OGC:1.3:CRS84"
        }
    },
    "features": [
        {
            "type": "Feature",
            "properties": {
                "fid": 2,
                "kuula_url": "https://kuula.co/share/L0d1Z?logo=1&info=1&fs=1&vr=0&sd=1&thumbs=1"
            },
            "geometry": {
                "type": "Point",
                "coordinates": [
                    -71.893314918986249,
                    -17.117442686777689
                ]
            }
        },
        {
            "type": "Feature",
            "properties": {
                "fid": 3,
                "kuula_url": "https://kuula.co/share/L0d1J?logo=1&info=1&fs=1&vr=0&sd=1&thumbs=1"
            },
            "geometry": {
                "type": "Point",
                "coordinates": [
                    -71.89317439592152,
                    -17.117527506786878
                ]
            }
        },
        {
            "type": "Feature",
            "properties": {
                "fid": 4,
                "kuula_url": "https://kuula.co/share/L0d1c?logo=1&info=1&fs=1&vr=0&sd=1&thumbs=1"
            },
            "geometry": {
                "type": "Point",
                "coordinates": [
                    -71.892945121447482,
                    -17.117677355375264
                ]
            }
        },
        {
            "type": "Feature",
            "properties": {
                "fid": 5,
                "kuula_url": "https://kuula.co/share/L0d11?logo=1&info=1&fs=1&vr=0&sd=1&thumbs=1"
            },
            "geometry": {
                "type": "Point",
                "coordinates": [
                    -71.892732857660221,
                    -17.117149350614461
                ]
            }
        },
        {
            "type": "Feature",
            "properties": {
                "fid": 6,
                "kuula_url": "https://kuula.co/share/L0d1D?logo=0&info=1&fs=1&vr=0&sd=1&thumbs=1"
            },
            "geometry": {
                "type": "Point",
                "coordinates": [
                    -71.892620439208443,
                    -17.117039084370845
                ]
            }
        },
        {
            "type": "Feature",
            "properties": {
                "fid": 7,
                "kuula_url": "https://kuula.co/share/L0x84?logo=0&info=1&fs=1&vr=0&sd=1&thumbs=1"
            },
            "geometry": {
                "type": "Point",
                "coordinates": [
                    -71.892444415579988,
                    -17.116830567898191
                ]
            }
        }
    ]
}