{
    "type": "FeatureCollection",
    "name": "lotes",
    "crs": {
        "type": "name",
        "properties": {
            "name": "urn:ogc:def:crs:OGC:1.3:CRS84"
        }
    },
    "features": [
        {
            "type": "Feature",
            "properties": {
                "fid": 2001,
                "number": "1",
                "direccion": "Lote 1",
                "estado": "disponible",
                "lote": "1",
                "manzana": "A",
                "area": "150",
                "precio": "45000"
            },
            "geometry": {
                "type": "MultiPolygon",
                "coordinates": [
                    [
                        [
                            [
                                -71.893841942111905,
                                -17.117220623098316
                            ],
                            [
                                -71.893151530107019,
                                -17.116378663599498
                            ],
                            [
                                -71.892799975913476,
                                -17.116612391090218
                            ],
                            [
                                -71.893529093394108,
                                -17.117499940288173
                            ],
                            [
                                -71.893841942111905,
                                -17.117220623098316
                            ]
                        ]
                    ]
                ]
            }
        },
        {
            "type": "Feature",
            "properties": {
                "fid": 2002,
                "number": "2",
                "direccion": "Lote 2",
                "estado": "disponible",
                "lote": "2",
                "manzana": "A",
                "area": "150",
                "precio": "45000"
            },
            "geometry": {
                "type": "MultiPolygon",
                "coordinates": [
                    [
                        [
                            [
                                -71.893140682712584,
                                -17.116365351490646
                            ],
                            [
                                -71.892342659623878,
                                -17.115391562253809
                            ],
                            [
                                -71.891975697199541,
                                -17.115591716058898
                            ],
                            [
                                -71.892794182418697,
                                -17.116602613181911
                            ],
                            [
                                -71.893140682712584,
                                -17.116365351490646
                            ]
                        ]
                    ]
                ]
            }
        },
        {
            "type": "Feature",
            "properties": {
                "fid": 2004,
                "number": "Lote 3",
                "direccion": "Lote 3",
                "estado": "disponible",
                "lote": "3",
                "manzana": "Lote",
                "area": "150",
                "precio": "45000"
            },
            "geometry": {
                "type": "MultiPolygon",
                "coordinates": [
                    [
                        [
                            [
                                -71.892922378898831,
                                -17.118044908005498
                            ],
                            [
                                -71.892627526994559,
                                -17.117687251032518
                            ],
                            [
                                -71.892632272729642,
                                -17.117621279974248
                            ],
                            [
                                -71.892592827658845,
                                -17.117621279974248
                            ],
                            [
                                -71.892560285475426,
                                -17.117616096532963
                            ],
                            [
                                -71.892547958890802,
                                -17.117608085759784
                            ],
                            [
                                -71.892532673925871,
                                -17.117600546208244
                            ],
                            [
                                -71.892529715545564,
                                -17.117596776432357
                            ],
                            [
                                -71.892487312094445,
                                -17.117747567408173
                            ],
                            [
                                -71.892240533870194,
                                -17.117915793446322
                            ],
                            [
                                -71.892587650493283,
                                -17.118338949586796
                            ],
                            [
                                -71.892922378898831,
                                -17.118044908005498
                            ]
                        ]
                    ]
                ]
            }
        },
        {
            "type": "Feature",
            "properties": {
                "fid": 2005,
                "number": "4",
                "direccion": "Lote 4",
                "estado": "reservado",
                "lote": "4",
                "manzana": "B",
                "area": "150",
                "precio": "45000"
            },
            "geometry": {
                "type": "MultiPolygon",
                "coordinates": [
                    [
                        [
                            [
                                -71.892516895897543,
                                -17.117586645159285
                            ],
                            [
                                -71.892473506319647,
                                -17.11773837858658
                            ],
                            [
                                -71.892233877514514,
                                -17.117901421199718
                            ],
                            [
                                -71.89174278638302,
                                -17.117306739071196
                            ],
                            [
                                -71.892089903006081,
                                -17.11707678223927
                            ],
                            [
                                -71.892516895897543,
                                -17.117586645159285
                            ]
                        ]
                    ]
                ]
            }
        },
        {
            "type": "Feature",
            "properties": {
                "fid": 2006,
                "number": "5",
                "direccion": "Lote 5",
                "estado": "vendido",
                "lote": "5",
                "manzana": "B",
                "area": "150",
                "precio": "45000"
            },
            "geometry": {
                "type": "MultiPolygon",
                "coordinates": [
                    [
                        [
                            [
                                -71.892072152724239,
                                -17.117052278625657
                            ],
                            [
                                -71.891728980608235,
                                -17.117284120379015
                            ],
                            [
                                -71.891237889476741,
                                -17.116690378725881
                            ],
                            [
                                -71.891476532155096,
                                -17.1165395868932
                            ],
                            [
                                -71.891661923987883,
                                -17.116549011386322
                            ],
                            [
                                -71.892072152724239,
                                -17.117052278625657
                            ]
                        ]
                    ]
                ]
            }
        },
        {
            "type": "Feature",
            "properties": {
                "fid": 2007,
                "number": "6",
                "direccion": "Lote 6",
                "estado": "disponible",
                "lote": "6",
                "manzana": "B",
                "area": "150",
                "precio": "45000"
            },
            "geometry": {
                "type": "MultiPolygon",
                "coordinates": [
                    [
                        [
                            [
                                -71.891656993354019,
                                -17.116528748725514
                            ],
                            [
                                -71.891471108457878,
                                -17.116519324231373
                            ],
                            [
                                -71.891228521272424,
                                -17.116676713221079
                            ],
                            [
                                -71.890839001198245,
                                -17.116201718499415
                            ],
                            [
                                -71.891356717752572,
                                -17.115919925422784
                            ],
                            [
                                -71.891702848248869,
                                -17.116344028553179
                            ],
                            [
                                -71.89171172338979,
                                -17.116359107757791
                            ],
                            [
                                -71.891708765009497,
                                -17.116372302060832
                            ],
                            [
                                -71.891703834375633,
                                -17.11638926616336
                            ],
                            [
                                -71.891697917615019,
                                -17.116403402914287
                            ],
                            [
                                -71.891687070220542,
                                -17.116416597214187
                            ],
                            [
                                -71.891676222826078,
                                -17.116429320288198
                            ],
                            [
                                -71.891665868495011,
                                -17.116447698060242
                            ],
                            [
                                -71.89165797948084,
                                -17.116470788078946
                            ],
                            [
                                -71.891655514163929,
                                -17.11648680972289
                            ],
                            [
                                -71.891654034973769,
                                -17.116505187489256
                            ],
                            [
                                -71.891655021100533,
                                -17.116519795456092
                            ],
                            [
                                -71.891656993354019,
                                -17.116528748725514
                            ]
                        ]
                    ]
                ]
            }
        }
    ]
}